NORAD_CAT_ID,OBJECT_NAME,OBJECT_TYPE,EPOCH,MEAN_MOTION,ECCENTRICITY,INCLINATION,RA_OF_ASC_NODE,ARG_OF_PERICENTER,MEAN_ANOMALY,BSTAR,MEAN_MOTION_DOT,MEAN_MOTION_DDOT,TLE_LINE0,TLE_LINE1,TLE_LINE2,SEMIMAJOR_AXIS,PERIOD,APOGEE,PERIGEE,DECAYED
53743.0,STARLINK-4645,PAYLOAD,2023-05-02 16:14:48,15.08856151,8.49e-05,53.217,261.9907,86.4721,273.6368,0.00047601,7.299e-05,0.0,0 STARLINK-4645,1 53743U 22107AV  23122.67694663  .00007299  00000-0  47601-3 0  9999,2 53743  53.2170 261.9907 0000849  86.4721 273.6368 15.08856151 37280,6917.831,95.437,540.283,539.109,0.0
53743.0,STARLINK-4645,PAYLOAD,2023-05-03 01:47:07,15.08831396,0.0001164,53.2158,260.2004,79.0912,281.0211,-0.00023327,-3.997e-05,0.0,0 STARLINK-4645,1 53743U 22107AV  23123.07439173 -.00003997  00000-0 -23327-3 0  9999,2 53743  53.2158 260.2004 0001164  79.0912 281.0211 15.08831396 36561,6917.907,95.438,540.577,538.966,0.0
53743.0,STARLINK-4645,PAYLOAD,2023-05-03 12:54:49,15.08839151,6.86e-05,53.2163,258.1203,70.4414,289.6652,1.8711e-05,1e-07,0.0,0 STARLINK-4645,1 53743U 22107AV  23123.53806987  .00000010  00000-0  18711-4 0  9994,2 53743  53.2163 258.1203 0000686  70.4414 289.6652 15.08839151 37419,6917.883,95.438,540.223,539.273,0.0
53743.0,STARLINK-4645,PAYLOAD,2023-05-03 19:16:21,15.0884651,6.94e-05,53.2162,256.9314,78.6392,281.4678,0.00045666,6.989e-05,0.0,0 STARLINK-4645,1 53743U 22107AV  23123.80302731  .00006989  00000-0  45666-3 0  9991,2 53743  53.2162 256.9314 0000694  78.6392 281.4678 15.08846510 36673,6917.86,95.437,540.206,539.245,0.0
53743.0,STARLINK-4645,PAYLOAD,2023-05-04 01:37:54,15.08837551,7.06e-05,53.2153,255.7432,92.3422,267.7651,0.00024931,3.682e-05,0.0,0 STARLINK-4645,1 53743U 22107AV  23124.06798992  .00003682  00000-0  24931-3 0  9997,2 53743  53.2153 255.7432 0000706  92.3422 267.7651 15.08837551 36710,6917.888,95.438,540.241,539.264,0.0
53743.0,STARLINK-4645,PAYLOAD,2023-05-04 12:45:36,15.08840841,6.73e-05,53.2158,253.6599,96.472,263.6349,0.0002816,4.197e-05,0.0,0 STARLINK-4645,1 53743U 22107AV  23124.53167058  .00004197  00000-0  28160-3 0  9992,2 53743  53.2158 253.6599 0000673  96.4720 263.6349 15.08840841 37564,6917.878,95.438,540.208,539.277,0.0
53743.0,STARLINK-4645,PAYLOAD,2023-05-04 20:42:31,15.0885804,7.72e-05,53.2158,252.1728,83.9353,276.1727,0.00096157,0.00015056,0.0,0 STARLINK-4645,1 53743U 22107AV  23124.86286802  .00015056  00000-0  96157-3 0  9994,2 53743  53.2158 252.1728 0000772  83.9353 276.1727 15.08858040 37610,6917.825,95.436,540.224,539.156,0.0
53743.0,STARLINK-4645,PAYLOAD,2023-05-05 14:11:46,15.08852249,6.66e-05,53.2149,248.9022,95.1051,265.0018,0.0007477,0.00011636,0.0,0 STARLINK-4645,1 53743U 22107AV  23125.59151047  .00011636  00000-0  74770-3 0  9994,2 53743  53.2149 248.9022 0000666  95.1051 265.0018 15.08852249 36942,6917.843,95.437,540.169,539.247,0.0
53743.0,STARLINK-4645,PAYLOAD,2023-05-05 15:47:09,15.08846927,7.52e-05,53.2151,248.605,89.7433,270.3645,0.0010181,0.00015955,0.0,0 STARLINK-4645,1 53743U 22107AV  23125.65775139  .00015955  00000-0  10181-2 0  9998,2 53743  53.2151 248.6050 0000752  89.7433 270.3645 15.08846927 37731,6917.859,95.437,540.244,539.204,0.0
53743.0,STARLINK-4645,PAYLOAD,2023-05-06 01:19:28,15.08836227,1.21e-05,53.2157,246.8211,288.2875,71.8104,7.541e-05,9.13e-06,0.0,0 STARLINK-4645,1 53743U 22107AV  23126.05519020  .00000913  00000-0  75410-4 0  9994,2 53743  53.2157 246.8211 0000121 288.2875  71.8104 15.08836227 37019,6917.892,95.438,539.841,539.673,0.0
53743.0,STARLINK-4645,PAYLOAD,2023-05-06 15:37:56,15.08863863,6.93e-05,53.2144,244.1443,66.8058,293.3007,0.0024617,0.00039133,0.0,0 STARLINK-4645,1 53743U 22107AV  23126.65135254  .00039133  00000-0  24617-2 0  9990,2 53743  53.2144 244.1443 0000693  66.8058 293.3007 15.08863863 37884,6917.807,95.436,540.152,539.193,0.0
53743.0,STARLINK-4645,PAYLOAD,2023-05-07 01:10:15,15.08852929,7.91e-05,53.2157,242.3597,78.5295,281.5786,0.0011921,0.00018742,0.0,0 STARLINK-4645,1 53743U 22107AV  23127.04879343  .00018742  00000-0  11921-2 0  9995,2 53743  53.2157 242.3597 0000791  78.5295 281.5786 15.08852929 37165,6917.841,95.437,540.253,539.159,0.0
53743.0,STARLINK-4645,PAYLOAD,2023-05-07 12:17:58,15.08835714,6.56e-05,53.2148,240.278,89.4101,270.6966,0.0012898,0.00020296,0.0,0 STARLINK-4645,1 53743U 22107AV  23127.51247839  .00020296  00000-0  12898-2 0  9997,2 53743  53.2148 240.2780 0000656  89.4101 270.6966 15.08835714 37233,6917.893,95.438,540.212,539.305,0.0
53743.0,STARLINK-4645,PAYLOAD,2023-05-07 13:53:21,15.08836282,6.7e-05,53.2148,239.9799,94.3054,265.8014,0.0013861,0.00021838,0.0,0 STARLINK-4645,1 53743U 22107AV  23127.57871853  .00021838  00000-0  13861-2 0  9996,2 53743  53.2148 239.9799 0000670  94.3054 265.8014 15.08836282 38025,6917.892,95.438,540.22,539.293,0.0
53743.0,STARLINK-4645,PAYLOAD,2023-05-08 01:01:03,15.08846431,7.42e-05,53.2145,237.8994,76.3423,283.7652,0.0013349,0.00021025,0.0,0 STARLINK-4645,1 53743U 22107AV  23128.04240015  .00021025  00000-0  13349-2 0  9998,2 53743  53.2145 237.8994 0000742  76.3423 283.7652 15.08846431 37311,6917.861,95.437,540.239,539.212,0.0
53743.0,STARLINK-4645,PAYLOAD,2023-05-08 12:08:45,15.08847327,9.29e-05,53.2149,235.8182,93.793,266.3169,0.00061633,9.537e-05,0.0,0 STARLINK-4645,1 53743U 22107AV  23128.50607944  .00009537  00000-0  61633-3 0  9991,2 53743  53.2149 235.8182 0000929  93.7930 266.3169 15.08847327 37387,6917.858,95.437,540.366,539.08,0.0
53743.0,STARLINK-4645,PAYLOAD,2023-05-08 16:54:54,15.08858452,9.08e-05,53.2153,234.9279,83.8571,276.2524,0.0009023,0.00014109,0.0,0 STARLINK-4645,1 53743U 22107AV  23128.70479679  .00014109  00000-0  90230-3 0  9991,2 53743  53.2153 234.9279 0000908  83.8571 276.2524 15.08858452 38193,6917.824,95.436,540.317,539.061,0.0
53743.0,STARLINK-4645,PAYLOAD,2023-05-09 11:59:32,15.08848768,7.42e-05,53.2153,231.3564,83.7967,276.3109,0.00038075,5.779e-05,0.0,0 STARLINK-4645,1 53743U 22107AV  23129.49967770  .00005779  00000-0  38075-3 0  9994,2 53743  53.2153 231.3564 0000742  83.7967 276.3109 15.08848768 37531,6917.854,95.437,540.232,539.205,0.0
53743.0,STARLINK-4645,PAYLOAD,2023-05-09 13:34:55,15.08849921,8.16e-05,53.215,231.0607,84.9942,275.1143,0.00050717,7.795e-05,0.0,0 STARLINK-4645,1 53743U 22107AV  23129.56591736  .00007795  00000-0  50717-3 0  9994,2 53743  53.2150 231.0607 0000816  84.9942 275.1143 15.08849921 38326,6917.85,95.437,540.28,539.151,0.0
53743.0,STARLINK-4645,PAYLOAD,2023-05-10 11:50:19,15.08848703,7.08e-05,53.2149,226.8981,98.4524,261.6548,0.0013723,0.00021625,0.0,0 STARLINK-4645,1 53743U 22107AV  23130.49327974  .00021625  00000-0  13723-2 0  9992,2 53743  53.2149 226.8981 0000708  98.4524 261.6548 15.08848703 38468,6917.854,95.437,540.209,539.229,0.0
53743.0,STARLINK-4645,PAYLOAD,2023-05-10 18:11:51,15.0886776,7.17e-05,53.2145,225.7094,101.5007,258.6065,0.0021543,0.0003419,0.0,0 STARLINK-4645,1 53743U 22107AV  23130.75823666  .00034190  00000-0  21543-2 0  9990,2 53743  53.2145 225.7094 0000717 101.5007 258.6065 15.08867760 38508,6917.796,95.436,540.157,539.165,0.0
53743.0,STARLINK-4645,PAYLOAD,2023-05-10 22:58:00,15.08854624,4.57e-05,53.2141,224.8184,163.1751,196.9256,0.00098853,0.00015486,0.0,0 STARLINK-4645,1 53743U 22107AV  23130.95695541  .00015486  00000-0  98853-3 0  9997,2 53743  53.2141 224.8184 0000457 163.1751 196.9256 15.08854624 37752,6917.836,95.437,540.017,539.385,0.0
53743.0,STARLINK-4645,PAYLOAD,2023-05-11 10:05:43,15.08840444,9.17e-05,53.2141,222.7364,96.09,264.0197,0.00048185,7.389e-05,0.0,0 STARLINK-4645,1 53743U 22107AV  23131.42063917  .00007389  00000-0  48185-3 0  9992,2 53743  53.2141 222.7364 0000917  96.0900 264.0197 15.08840444 38601,6917.879,95.438,540.378,539.11,0.0
53743.0,STARLINK-4645,PAYLOAD,2023-05-11 11:41:06,15.08838335,8.88e-05,53.2145,222.4383,94.1099,265.9994,0.00052873,8.137e-05,0.0,0 STARLINK-4645,1 53743U 22107AV  23131.48687925  .00008137  00000-0  52873-3 0  9990,2 53743  53.2145 222.4383 0000888  94.1099 265.9994 15.08838335 37833,6917.885,95.438,540.365,539.136,0.0
53743.0,STARLINK-4645,PAYLOAD,2023-05-11 13:16:29,15.08843279,9.98e-05,53.2145,222.1406,96.2373,263.8733,0.00022617,3.314e-05,0.0,0 STARLINK-4645,1 53743U 22107AV  23131.55311821  .00003314  00000-0  22617-3 0  9992,2 53743  53.2145 222.1406 0000998  96.2373 263.8733 15.08843279 38625,6917.87,95.437,540.426,539.045,0.0
53743.0,STARLINK-4645,PAYLOAD,2023-05-11 22:48:48,15.08841034,9.43e-05,53.2143,220.3558,101.2348,258.875,8.9595e-05,1.138e-05,0.0,0 STARLINK-4645,1 53743U 22107AV  23131.95055915  .00001138  00000-0  89595-4 0  9996,2 53743  53.2143 220.3558 0000943 101.2348 258.8750 15.08841034 38686,6917.877,95.437,540.395,539.09,0.0
53743.0,STARLINK-4645,PAYLOAD,2023-05-12 09:56:30,15.08835861,0.000103,53.2145,218.2748,97.3715,262.7394,1.3846e-05,-6.7e-07,0.0,0 STARLINK-4645,1 53743U 22107AV  23132.41424233 -.00000067  00000-0  13846-4 0  9998,2 53743  53.2145 218.2748 0001030  97.3715 262.7394 15.08835861 37976,6917.893,95.438,540.471,539.045,0.0
53743.0,STARLINK-4645,PAYLOAD,2023-05-13 12:58:03,15.08850431,9.69e-05,53.2146,213.2249,119.9532,240.1556,0.00028828,4.304e-05,0.0,0 STARLINK-4645,1 53743U 22107AV  23133.54031726  .00004304  00000-0  28828-3 0  9996,2 53743  53.2146 213.2249 0000969 119.9532 240.1556 15.08850431 38146,6917.849,95.437,540.384,539.043,0.0
53743.0,STARLINK-4645,PAYLOAD,2023-05-13 22:30:22,15.08843696,9.11e-05,53.215,211.4396,74.9908,285.1185,0.00016897,2.403e-05,0.0,0 STARLINK-4645,1 53743U 22107AV  23133.93776069  .00002403  00000-0  16897-3 0  9996,2 53743  53.2150 211.4396 0000911  74.9908 285.1185 15.08843696 38207,6917.869,95.437,540.364,539.104,0.0
53743.0,STARLINK-4645,PAYLOAD,2023-05-14 11:13:27,15.08836345,0.0001245,53.2156,209.0527,116.6578,243.4541,3.6919e-05,3e-06,0.0,0 STARLINK-4645,1 53743U 22107AV  23134.46768341  .00000300  00000-0  36919-4 0  9991,2 53743  53.2156 209.0527 0001245 116.6578 243.4541 15.08836345 38284,6917.892,95.438,540.618,538.895,0.0
